STARLINK-36730          
1 67874U 26034AA  26080.47244153  .00418881  00000+0  20276-2 0  9991
2 67874  53.1582 152.0937 0002457  27.7343 332.3811 15.80840043  5806
STARLINK-36727          
1 67875U 26034AB  26080.47169108  .00481111  00000+0  23140-2 0  9997
2 67875  53.1579 152.0886 0001482  64.8273 295.2903 15.80814741  5802
STARLINK-36743          
1 67876U 26034AC  26080.47094130  .00578793  00000+0  27482-2 0  9996
2 67876  53.1583 152.0831 0001210  76.4849 283.6308 15.80838813  5801
STARLINK-36784          
1 67877U 26034AD  26080.50001157 -.01915615  00000+0 -19941-1 0  9999
2 67877  53.1589 152.0992 0001320  53.7572  33.8687 15.67005070  5754
STARLINK-36689          
1 67878U 26034AE  26080.53265374  .00250312  00000+0  12315-2 0  9998
2 67878  53.1577 151.7568 0001214 113.2559 246.8592 15.80939808  5814
STARLINK-36818          
1 67879U 26035A   26080.57813430  .00088444  00000+0  58574-3 0  9999
2 67879  97.2873  13.5439 0001368  86.5085 273.6336 15.75267762  5711
STARLINK-36821          
1 67880U 26035B   26080.57530791  .00490196  00000+0  30745-2 0  9997
2 67880  97.2865  13.5469 0001459 112.7079 247.4341 15.75399231  5715
STARLINK-36808          
1 67881U 26035C   26080.55135484  .00292178  00000+0  14725-2 0  9996
2 67881  97.2890  13.5772 0001876 135.0824 225.0596 15.80861108  5717
STARLINK-36817          
1 67882U 26035D   26080.50001157 -.00002620  00000+0 -16714-4 0  9996
2 67882  97.2861  13.5149 0001695  76.3396 324.9705 15.75171921  5659
STARLINK-36856          
1 67883U 26035E   26080.50001157 -.00159171  00000+0 -10830-2 0  9992
2 67883  97.2863  13.5092 0001440 103.2966 282.1148 15.75257984  5650
STARLINK-36842          
1 67884U 26035F   26080.57248587  .00005467  00000+0  37327-4 0  9998
2 67884  97.2868  13.5491 0001209  23.8091 336.3230 15.75298369  5711
STARLINK-36826          
1 67885U 26035G   26080.37308566  .00174817  00000+0  11435-2 0  9997
2 67885  97.2866  13.3596 0001096 115.7382 244.3996 15.75302539  5680
